{
  "norad_id": 61973,
  "name": "STARLINK-32601",
  "history": [
    {
      "epoch": "2026-03-28T15:34:50.643264Z",
      "apogee_km": 484.5550183096557,
      "perigee_km": 481.481220816092,
      "latitude_deg": 5.911589167004845e-05,
      "longitude_deg": 12.623135605651765,
      "height_km": 481.770208149935,
      "semi_major_axis_km": 6861.155119562874,
      "eccentricity": 0.000224,
      "inclination_deg": 42.9961,
      "raan_deg": 72.4007,
      "arg_perigee_deg": 48.3635,
      "mean_anomaly_deg": 311.7409,
      "mean_motion_rev_day": 15.27590345
    },
    {
      "epoch": "2026-03-29T05:42:14.325120Z",
      "apogee_km": 483.53818268927535,
      "perigee_km": 482.4884266926565,
      "latitude_deg": 1.0324537787860712e-06,
      "longitude_deg": 156.87337817803345,
      "height_km": 482.77902815318697,
      "semi_major_axis_km": 6861.150304690966,
      "eccentricity": 7.65e-05,
      "inclination_deg": 43.002,
      "raan_deg": 69.0797,
      "arg_perigee_deg": 271.1624,
      "mean_anomaly_deg": 88.914,
      "mean_motion_rev_day": 15.27591953
    },
    {
      "epoch": "2026-03-30T05:14:35.163456Z",
      "apogee_km": 484.1402497750987,
      "perigee_km": 481.9083140100993,
      "latitude_deg": 1.4334027944725498e-05,
      "longitude_deg": 157.27744922584375,
      "height_km": 482.7064311501322,
      "semi_major_axis_km": 6861.161281892599,
      "eccentricity": 0.00016265,
      "inclination_deg": 42.9955,
      "raan_deg": 63.5373,
      "arg_perigee_deg": 274.8443,
      "mean_anomaly_deg": 85.2223,
      "mean_motion_rev_day": 15.27588287
    },
    {
      "epoch": "2026-03-30T14:39:31.693536Z",
      "apogee_km": 483.4592447253144,
      "perigee_km": 482.63055117568,
      "latitude_deg": 3.974083369106423e-05,
      "longitude_deg": 13.439845599203299,
      "height_km": 482.8065693606569,
      "semi_major_axis_km": 6861.181897950497,
      "eccentricity": 6.039e-05,
      "inclination_deg": 42.9993,
      "raan_deg": 61.3219,
      "arg_perigee_deg": 271.9704,
      "mean_anomaly_deg": 88.1079,
      "mean_motion_rev_day": 15.27581402
    },
    {
      "epoch": "2026-03-30T22:30:18.923328Z",
      "apogee_km": 483.18226973813125,
      "perigee_km": 482.85952087073474,
      "latitude_deg": -2.446746552416556e-05,
      "longitude_deg": -106.42275566578355,
      "height_km": 482.7011512573714,
      "semi_major_axis_km": 6861.157895304433,
      "eccentricity": 2.352e-05,
      "inclination_deg": 42.9951,
      "raan_deg": 59.4784,
      "arg_perigee_deg": 54.1879,
      "mean_anomaly_deg": 305.8994,
      "mean_motion_rev_day": 15.27589418
    },
    {
      "epoch": "2026-03-31T14:11:53.292192Z",
      "apogee_km": 483.3912124257622,
      "perigee_km": 482.7256764676522,
      "latitude_deg": -1.3827039896267659e-05,
      "longitude_deg": 13.84626929591991,
      "height_km": 482.5672316909615,
      "semi_major_axis_km": 6861.195444446707,
      "eccentricity": 4.85e-05,
      "inclination_deg": 42.9962,
      "raan_deg": 55.7851,
      "arg_perigee_deg": 323.2201,
      "mean_anomaly_deg": 36.8617,
      "mean_motion_rev_day": 15.27576878
    },
    {
      "epoch": "2026-04-01T13:44:14.188416Z",
      "apogee_km": 483.36975760347013,
      "perigee_km": 482.69050205761596,
      "latitude_deg": -1.9601872684837755e-05,
      "longitude_deg": 14.252878775360871,
      "height_km": 482.51067029837577,
      "semi_major_axis_km": 6861.167129830543,
      "eccentricity": 4.95e-05,
      "inclination_deg": 42.9961,
      "raan_deg": 50.2455,
      "arg_perigee_deg": 330.2021,
      "mean_anomaly_deg": 29.8802,
      "mean_motion_rev_day": 15.27586334
    }
  ]
}